STARLINK-5752           
1 55577U 23020J   24210.60553739 -.00000765  00000+0 -41524-4 0  9992
2 55577  43.0041 325.6785 0001889 276.0881  83.9746 15.02528411 80304
STARLINK-5713           
1 55578U 23020K   24211.56840979  .00003223  00000+0  25890-3 0  9991
2 55578  42.9983 320.0539 0001285 282.6376  77.4322 15.01727478 80453
STARLINK-5754           
1 55579U 23020L   24211.58273458 -.00000386  00000+0 -13499-4 0  9998
2 55579  43.0039 320.1772 0001314 267.9634  92.1058 15.02529085 80459
STARLINK-5757           
1 55580U 23020M   24210.71349128  .00000070  00000+0  20281-4 0  9997
2 55580  43.0036 298.8452 0001246 261.5189  98.5512 15.02536191 80623
STARLINK-5753           
1 55581U 23020N   24210.99885884  .00000563  00000+0  56705-4 0  9999
2 55581  43.0018 323.5347 0001173 277.1537  82.9172 15.02537993 80363
STARLINK-5741           
1 55582U 23020P   24211.56412893  .00002374  00000+0  19075-3 0  9990
2 55582  43.0018 307.0831 0001313 262.9678  97.1015 15.02534537 80605
STARLINK-5742           
1 55583U 23020Q   24210.79276093  .00002978  00000+0  23537-3 0  9993
2 55583  43.0022 324.5689 0001363 274.1522  85.9164 15.02547383 80337
STARLINK-5736           
1 55584U 23020R   24211.58828063  .00001598  00000+0  13332-3 0  9991
2 55584  43.0042 320.2166 0001006 274.4897  85.5830 15.02533590 80459
STARLINK-5769           
1 55585U 23020S   24211.55314621  .00002367  00000+0  19024-3 0  9998
2 55585  43.0021 307.8587 0001309 265.6190  94.4502 15.02535650 80598
STARLINK-5767           
1 55586U 23020T   24211.58051757  .00005339  00000+0  40999-3 0  9997
2 55586  43.0041 320.1616 0001490 264.3071  95.7602 15.02538214 80456
STARLINK-5727           
1 55587U 23020U   24211.58605157  .00000515  00000+0  53210-4 0  9999
2 55587  43.0050 320.1366 0001516 265.2881  94.7788 15.02534236 80451
STARLINK-5728           
1 55588U 23020V   24210.70964556 -.00001262  00000+0 -78372-4 0  9992
2 55588  43.0075 324.8046 0001360 260.1455  99.9234 15.02539125 80324
STARLINK-5697           
1 55589U 23020W   24211.57940067  .00000041  00000+0  18105-4 0  9990
2 55589  43.0051 320.1550 0001769 277.4787  82.5854 15.02531956 80454
STARLINK-5762           
1 55590U 23020X   24211.03537092  .00000963  00000+0  86314-4 0  9993
2 55590  43.0038 322.9514 0001548 251.2513 108.8161 15.02539762 80370
STARLINK-5760           
1 55591U 23020Y   24211.04535865  .00001098  00000+0  96315-4 0  9993
2 55591  43.0059 323.0238 0000994 281.8611  78.2120 15.02535048 80379
STARLINK-5759           
1 55592U 23020Z   24211.03093593  .00001435  00000+0  12126-3 0  9992
2 55592  43.0013 322.9187 0000878 270.0025  90.0717 15.02539015 80373
STARLINK-5703           
1 55593U 23020AA  24211.57052251  .00000670  00000+0  64678-4 0  9998
2 55593  43.0040 320.0853 0001370 269.9232  90.1453 15.02534507 80456
STARLINK-5750           
1 55594U 23020AB  24211.02760629  .00001004  00000+0  89345-4 0  9994
2 55594  42.9996 322.8954 0000366 267.8254  92.2546 15.02537440 80378
STARLINK-5740           
1 55595U 23020AC  24211.03425965  .00000496  00000+0  51755-4 0  9995
2 55595  43.0025 322.9406 0001080 276.2493  83.8227 15.02533391 80373
STARLINK-5729           
1 55596U 23020AD  24210.62650895  .00002586  00000+0  20644-3 0  9996
2 55596  43.0016 325.0446 0000924 295.0723  65.0023 15.02540635 80312
STARLINK-5743           
1 55597U 23020AE  24211.54981858  .00003842  00000+0  29932-3 0  9990
2 55597  43.0008 307.8321 0001334 264.8495  95.2195 15.02537834 80592
STARLINK-5756           
1 55598U 23020AF  24211.55980433  .00004356  00000+0  33727-3 0  9998
2 55598  43.0008 307.8724 0001193 263.7462  96.3245 15.02539740 80591
STARLINK-5761           
1 55599U 23020AG  24210.75873425  .00001377  00000+0  11697-3 0  9994
2 55599  43.0021 312.1819 0000884 275.9857  84.0885 15.02535079 80472
STARLINK-5755           
1 55600U 23020AH  24211.01243679 -.00001402  00000+0 -88722-4 0  9994
2 55600  43.0047 310.6606 0001423 281.0510  79.0172 15.02540766 80511
STARLINK-5744           
1 55601U 23020AJ  24210.68967660 -.00000967  00000+0 -56497-4 0  9999
2 55601  43.0053 324.6569 0001314 280.4020  79.6674 15.02536356 80322
STARLINK-5764           
1 55602U 23020AK  24211.55424778  .00000915  00000+0  82819-4 0  9993
2 55602  43.0055 307.8277 0001710 274.2019  85.8628 15.02535723 80597
STARLINK-5735           
1 55603U 23020AL  24211.54758962 -.00021964  00000+0 -16113-2 0  9999
2 55603  43.0006 307.8041 0001734 316.4349  43.6356 15.02642902 80592
STARLINK-5748           
1 55604U 23020AM  24211.51677076  .00001335  00000+0  11385-3 0  9998
2 55604  43.0015 294.5601 0001100 288.8101  71.2622 15.02536843 80748
STARLINK-5725           
1 55605U 23020AN  24211.01132488  .00000910  00000+0  82374-4 0  9992
2 55605  43.0019 310.6535 0000839 262.3878  97.6869 15.02541654 80511
STARLINK-5700           
1 55607U 23020AQ  24211.53649870  .00001831  00000+0  15056-3 0  9994
2 55607  43.0025 307.7147 0001024 247.4362 112.6372 15.02533244 80596
STARLINK-5726           
1 55608U 23020AR  24211.53428020  .00004627  00000+0  35750-3 0  9996
2 55608  43.0029 307.7016 0001760 272.6056  87.4585 15.02522679 80598
STARLINK-5719           
1 55609U 23020AS  24211.53982466  .00001832  00000+0  15064-3 0  9997
2 55609  43.0040 307.7384 0001353 249.7664 110.3033 15.02535189 80592
STARLINK-5722           
1 55610U 23020AT  24210.66228215 -.00001032  00000+0 -61302-4 0  9998
2 55610  43.0017 312.3359 0001420 285.9556  74.1130 15.02552551 80462
STARLINK-5730           
1 55611U 23020AU  24210.66006754 -.00000388  00000+0 -13636-4 0  9991
2 55611  43.0016 312.3213 0000762 251.3365 108.7394 15.02545133 80468
STARLINK-5734           
1 55612U 23020AV  24210.65897078  .00000565  00000+0  56941-4 0  9999
2 55612  43.0030 312.3128 0001451 268.6357  91.4319 15.02524486 80461
STARLINK-5715           
1 55613U 23020AW  24211.53094575  .00001676  00000+0  13913-3 0  9994
2 55613  43.0033 307.6752 0001282 251.9082 108.1621 15.02534207 80595
STARLINK-5714           
1 55614U 23020AX  24211.52786776  .00001717  00000+0  14215-3 0  9997
2 55614  43.0032 294.6090 0001388 264.4030  95.6654 15.02534327 80740
STARLINK-5712           
1 55615U 23020AY  24210.98802515 -.00000224  00000+0 -14815-5 0  9999
2 55615  43.0047 310.4804 0001880 272.7224  87.3403 15.02539328 80512
STARLINK-5710           
1 55616U 23020AZ  24211.57745203  .00016077  00000+0  12029-2 0  9999
2 55616  43.0085 307.1538 0000984  28.4594 331.6302 15.02523489 80606
STARLINK-5721           
1 55617U 23020BA  24211.58298607  .00000102  00000+0  22587-4 0  9996
2 55617  43.0034 307.2037 0001076 269.3407  90.7312 15.02554026 80603
STARLINK-5717           
1 55618U 23020BB  24210.64565257 -.00000465  00000+0 -19332-4 0  9999
2 55618  43.0043 312.2125 0001384 271.8944  88.1739 15.02530743 80462
STARLINK-5720           
1 55619U 23020BC  24210.97470408 -.00000582  00000+0 -28006-4 0  9997
2 55619  43.0009 310.3854 0002291 263.3153  96.7429 15.02525427 80519
STARLINK-5718           
1 55620U 23020BD  24210.97137601  .00000493  00000+0  51526-4 0  9996
2 55620  43.0026 310.3537 0001422 262.3717  97.6964 15.02539833 80518
STARLINK-5709           
1 55621U 23020BE  24211.58077730  .00002035  00000+0  16571-3 0  9995
2 55621  43.0047 307.1884 0001407 261.1474  98.9209 15.02534011 80600
STARLINK-5702           
1 55622U 23020BF  24211.56745719  .00002072  00000+0  16842-3 0  9995
2 55622  43.0014 307.0912 0001361 262.4047  97.6641 15.02534304 80606
STARLINK-5698           
1 55623U 23020BG  24211.56299861  .00002342  00000+0  18834-3 0  9991
2 55623  42.9994 307.0538 0000940 254.4861 105.5878 15.02549212 80608
STARLINK-5484           
1 55628U 23021A   24211.18414451  .00000411  00000+0  42246-4 0  9999
2 55628  69.9979 248.3726 0003279 267.8587  92.2197 14.98332781 79847
STARLINK-5497           
1 55629U 23021B   24211.18831944  .00000583  00000+0  56615-4 0  9995
2 55629  69.9976 248.3884 0003236 270.4406  89.6382 14.98331912 79844
STARLINK-5303           
1 55630U 23021C   24211.51377301  .00000062  00000+0  12980-4 0  9995
2 55630  69.9979 247.5161 0003174 269.9352  90.1444 14.98329893 79898
STARLINK-5558           
1 55631U 23021D   24211.22168722 -.00000291  00000+0 -16598-4 0  9994
2 55631  69.9980 248.1012 0003210 267.6137  92.4654 14.98327831 79854
STARLINK-5546           
1 55632U 23021E   24211.23838486  .00000129  00000+0  18579-4 0  9996
2 55632  69.9979 248.1579 0003212 269.4863  90.5928 14.98328264 79853
STARLINK-5498           
1 55633U 23021F   24211.23421090  .00000042  00000+0  11276-4 0  9997
2 55633  69.9979 248.1442 0003069 266.1171  93.9637 14.98327150 79856
STARLINK-5500           
1 55634U 23021G   24211.23854675  .00000290  00000+0  32070-4 0  9997
2 55634  69.9978 248.1614 0003617 268.9110  91.1635 14.98330005 79850
STARLINK-5495           
1 55635U 23021H   24211.21728791 -.00000071  00000+0  18473-5 0  9995
2 55635  69.9978 228.2174 0003346 269.5063  90.5713 14.98333053 80346
STARLINK-5218           
1 55636U 23021J   24211.22585221  .00000925  00000+0  85256-4 0  9995
2 55636  69.9975 248.1153 0003405 272.7402  87.3368 14.98336740 79851
STARLINK-5062           
1 55637U 23021K   24211.23398554 -.00000044  00000+0  41138-5 0  9993
2 55637  69.9984 228.2727 0003303 265.2727  94.8055 14.98329315 80344
STARLINK-5507           
1 55638U 23021L   24211.23003320  .00000488  00000+0  48710-4 0  9991
2 55638  69.9976 248.1306 0003384 267.7681  92.3091 14.98328940 79855
STARLINK-5508           
1 55639U 23021M   24211.21327831  .00000174  00000+0  22406-4 0  9992
2 55639  69.9978 228.2006 0003618 268.3447  91.7298 14.98332154 80341
STARLINK-5069           
1 55640U 23021N   24211.20893843  .00000306  00000+0  33479-4 0  9993
2 55640  69.9978 228.1833 0003657 269.8600  90.2140 14.98333114 80347
